[{"OBJECT_NAME":"COSMOS 2251 DEB","OBJECT_ID":"1993-036BUW","EPOCH":"2026-02-01T02:26:05.515008","MEAN_MOTION":14.41974109,"ECCENTRICITY":0.00305327,"INCLINATION":74.0243,"RA_OF_ASC_NODE":153.3411,"ARG_OF_PERICENTER":258.2017,"MEAN_ANOMALY":283.7961,"EPHEMERIS_TYPE":0,"CLASSIFICATION_TYPE":"U","NORAD_CAT_ID":39591,"ELEMENT_SET_NO":999,"REV_AT_EPOCH":62502,"BSTAR":0.00047932996,"MEAN_MOTION_DOT":1.554e-5,"MEAN_MOTION_DDOT":0},{"OBJECT_NAME":"COSMOS 2251 DEB","OBJECT_ID":"1993-036BUX","EPOCH":"2026-01-31T01:17:10.685760","MEAN_MOTION":14.41741107,"ECCENTRICITY":0.00173551,"INCLINATION":74.0302,"RA_OF_ASC_NODE":157.4354,"ARG_OF_PERICENTER":237.647,"MEAN_ANOMALY":122.3006,"EPHEMERIS_TYPE":0,"CLASSIFICATION_TYPE":"U","NORAD_CAT_ID":40218,"ELEMENT_SET_NO":999,"REV_AT_EPOCH":59572,"BSTAR":0.00050564095,"MEAN_MOTION_DOT":1.627e-5,"MEAN_MOTION_DDOT":0},{"OBJECT_NAME":"COSMOS 2251 DEB","OBJECT_ID":"1993-036BVC","EPOCH":"2026-02-01T20:20:48.141024","MEAN_MOTION":15.1006524,"ECCENTRICITY":0.00111092,"INCLINATION":73.9392,"RA_OF_ASC_NODE":343.0705,"ARG_OF_PERICENTER":175.6624,"MEAN_ANOMALY":215.5808,"EPHEMERIS_TYPE":0,"CLASSIFICATION_TYPE":"U","NORAD_CAT_ID":40223,"ELEMENT_SET_NO":999,"REV_AT_EPOCH":60144,"BSTAR":0.0025329996,"MEAN_MOTION_DOT":0.000415,"MEAN_MOTION_DDOT":0},{"OBJECT_NAME":"COSMOS 2251 DEB","OBJECT_ID":"1993-036BVH","EPOCH":"2026-01-31T19:39:26.725248","MEAN_MOTION":14.41121351,"ECCENTRICITY":0.00239057,"INCLINATION":74.0552,"RA_OF_ASC_NODE":167.9452,"ARG_OF_PERICENTER":222.2013,"MEAN_ANOMALY":289.2793,"EPHEMERIS_TYPE":0,"CLASSIFICATION_TYPE":"U","NORAD_CAT_ID":40228,"ELEMENT_SET_NO":999,"REV_AT_EPOCH":59642,"BSTAR":0.00044248041,"MEAN_MOTION_DOT":1.404e-5,"MEAN_MOTION_DDOT":0},{"OBJECT_NAME":"COSMOS 2251 DEB","OBJECT_ID":"1993-036BVK","EPOCH":"2026-01-31T12:57:09.815616","MEAN_MOTION":14.49690406,"ECCENTRICITY":0.00173836,"INCLINATION":74.0456,"RA_OF_ASC_NODE":133.5023,"ARG_OF_PERICENTER":186.2253,"MEAN_ANOMALY":189.4064,"EPHEMERIS_TYPE":0,"CLASSIFICATION_TYPE":"U","NORAD_CAT_ID":40230,"ELEMENT_SET_NO":999,"REV_AT_EPOCH":59693,"BSTAR":0.00081115225,"MEAN_MOTION_DOT":3.101e-5,"MEAN_MOTION_DDOT":0},{"OBJECT_NAME":"COSMOS 2251 DEB","OBJECT_ID":"1993-036BVN","EPOCH":"2026-01-28T05:43:25.052160","MEAN_MOTION":14.5898676,"ECCENTRICITY":0.00428687,"INCLINATION":73.942,"RA_OF_ASC_NODE":14.0378,"ARG_OF_PERICENTER":76.1874,"MEAN_ANOMALY":284.4056,"EPHEMERIS_TYPE":0,"CLASSIFICATION_TYPE":"U","NORAD_CAT_ID":40233,"ELEMENT_SET_NO":999,"REV_AT_EPOCH":59815,"BSTAR":0.001809011,"MEAN_MOTION_DOT":8.581e-5,"MEAN_MOTION_DDOT":0},{"OBJECT_NAME":"COSMOS 2251 DEB","OBJECT_ID":"1993-036BVR","EPOCH":"2026-01-16T12:58:14.015136","MEAN_MOTION":13.2471823,"ECCENTRICITY":0.05372564,"INCLINATION":73.5362,"RA_OF_ASC_NODE":88.8944,"ARG_OF_PERICENTER":325.9847,"MEAN_ANOMALY":30.785,"EPHEMERIS_TYPE":0,"CLASSIFICATION_TYPE":"U","NORAD_CAT_ID":40236,"ELEMENT_SET_NO":999,"REV_AT_EPOCH":54085,"BSTAR":0.00079777553,"MEAN_MOTION_DOT":7.23e-6,"MEAN_MOTION_DDOT":0},{"OBJECT_NAME":"COSMOS 2251 DEB","OBJECT_ID":"1993-036BVT","EPOCH":"2026-01-26T04:03:32.599584","MEAN_MOTION":13.2535854,"ECCENTRICITY":0.05534672,"INCLINATION":73.9955,"RA_OF_ASC_NODE":355.3573,"ARG_OF_PERICENTER":318.6078,"MEAN_ANOMALY":37.4289,"EPHEMERIS_TYPE":0,"CLASSIFICATION_TYPE":"U","NORAD_CAT_ID":40238,"ELEMENT_SET_NO":999,"REV_AT_EPOCH":54625,"BSTAR":0.0042918229,"MEAN_MOTION_DOT":4.258e-5,"MEAN_MOTION_DDOT":0},{"OBJECT_NAME":"COSMOS 2251 DEB","OBJECT_ID":"1993-036BVU","EPOCH":"2026-01-21T06:17:59.930016","MEAN_MOTION":14.62163076,"ECCENTRICITY":0.00864308,"INCLINATION":74.0292,"RA_OF_ASC_NODE":200.1348,"ARG_OF_PERICENTER":302.4234,"MEAN_ANOMALY":238.1099,"EPHEMERIS_TYPE":0,"CLASSIFICATION_TYPE":"U","NORAD_CAT_ID":40239,"ELEMENT_SET_NO":999,"REV_AT_EPOCH":60188,"BSTAR":0.00052722999,"MEAN_MOTION_DOT":2.766e-5,"MEAN_MOTION_DDOT":0},{"OBJECT_NAME":"COSMOS 2251 DEB","OBJECT_ID":"1993-036BVV","EPOCH":"2026-02-01T12:34:30.880992","MEAN_MOTION":14.68348414,"ECCENTRICITY":0.00155873,"INCLINATION":74.0466,"RA_OF_ASC_NODE":309.3729,"ARG_OF_PERICENTER":35.419,"MEAN_ANOMALY":144.1725,"EPHEMERIS_TYPE":0,"CLASSIFICATION_TYPE":"U","NORAD_CAT_ID":40792,"ELEMENT_SET_NO":999,"REV_AT_EPOCH":63929,"BSTAR":0.00097319888,"MEAN_MOTION_DOT":5.605e-5,"MEAN_MOTION_DDOT":0},{"OBJECT_NAME":"COSMOS 2251 DEB","OBJECT_ID":"1993-036BVX","EPOCH":"2026-01-26T00:15:58.385088","MEAN_MOTION":14.97426755,"ECCENTRICITY":0.00051933,"INCLINATION":73.9753,"RA_OF_ASC_NODE":34.6143,"ARG_OF_PERICENTER":204.119,"MEAN_ANOMALY":182.8661,"EPHEMERIS_TYPE":0,"CLASSIFICATION_TYPE":"U","NORAD_CAT_ID":40794,"ELEMENT_SET_NO":999,"REV_AT_EPOCH":62586,"BSTAR":0.0063013023,"MEAN_MOTION_DOT":0.00074101,"MEAN_MOTION_DDOT":0},{"OBJECT_NAME":"COSMOS 2251 DEB","OBJECT_ID":"1993-036BVZ","EPOCH":"2026-02-01T18:19:34.290048","MEAN_MOTION":14.82597126,"ECCENTRICITY":0.00532792,"INCLINATION":74.0117,"RA_OF_ASC_NODE":41.1927,"ARG_OF_PERICENTER":167.4754,"MEAN_ANOMALY":8.5191,"EPHEMERIS_TYPE":0,"CLASSIFICATION_TYPE":"U","NORAD_CAT_ID":40796,"ELEMENT_SET_NO":999,"REV_AT_EPOCH":76914,"BSTAR":0.00058965573,"MEAN_MOTION_DOT":4.832e-5,"MEAN_MOTION_DDOT":0},{"OBJECT_NAME":"COSMOS 2251 DEB","OBJECT_ID":"1993-036BWA","EPOCH":"2026-01-16T07:10:39.472608","MEAN_MOTION":15.12375888,"ECCENTRICITY":0.00727297,"INCLINATION":73.9248,"RA_OF_ASC_NODE":23.2553,"ARG_OF_PERICENTER":286.8154,"MEAN_ANOMALY":72.507,"EPHEMERIS_TYPE":0,"CLASSIFICATION_TYPE":"U","NORAD_CAT_ID":40797,"ELEMENT_SET_NO":999,"REV_AT_EPOCH":65166,"BSTAR":0.00065987287,"MEAN_MOTION_DOT":0.00012186,"MEAN_MOTION_DDOT":0},{"OBJECT_NAME":"COSMOS 2251 DEB","OBJECT_ID":"1993-036BWC","EPOCH":"2026-02-01T14:41:50.534880","MEAN_MOTION":14.97341853,"ECCENTRICITY":0.01181567,"INCLINATION":73.9274,"RA_OF_ASC_NODE":354.7292,"ARG_OF_PERICENTER":225.8108,"MEAN_ANOMALY":133.3324,"EPHEMERIS_TYPE":0,"CLASSIFICATION_TYPE":"U","NORAD_CAT_ID":40799,"ELEMENT_SET_NO":999,"REV_AT_EPOCH":50738,"BSTAR":0.00033807778,"MEAN_MOTION_DOT":4.485e-5,"MEAN_MOTION_DDOT":0},{"OBJECT_NAME":"COSMOS 2251 DEB","OBJECT_ID":"1993-036BWF","EPOCH":"2026-01-30T08:22:01.746048","MEAN_MOTION":14.78247688,"ECCENTRICITY":0.0059723,"INCLINATION":74.0407,"RA_OF_ASC_NODE":57.5997,"ARG_OF_PERICENTER":144.9649,"MEAN_ANOMALY":215.5479,"EPHEMERIS_TYPE":0,"CLASSIFICATION_TYPE":"U","NORAD_CAT_ID":40802,"ELEMENT_SET_NO":999,"REV_AT_EPOCH":65127,"BSTAR":0.00075777084,"MEAN_MOTION_DOT":5.636e-5,"MEAN_MOTION_DDOT":0},{"OBJECT_NAME":"COSMOS 2251 DEB","OBJECT_ID":"1993-036BWG","EPOCH":"2026-02-01T18:22:48.346176","MEAN_MOTION":14.51980865,"ECCENTRICITY":0.0032608,"INCLINATION":74.016,"RA_OF_ASC_NODE":315.6564,"ARG_OF_PERICENTER":161.616,"MEAN_ANOMALY":198.6189,"EPHEMERIS_TYPE":0,"CLASSIFICATION_TYPE":"U","NORAD_CAT_ID":40803,"ELEMENT_SET_NO":999,"REV_AT_EPOCH":59493,"BSTAR":0.00026536896,"MEAN_MOTION_DOT":1.05e-5,"MEAN_MOTION_DDOT":0},{"OBJECT_NAME":"COSMOS 2251 DEB","OBJECT_ID":"1993-036BWM","EPOCH":"2026-02-01T02:19:47.987616","MEAN_MOTION":14.68553389,"ECCENTRICITY":0.00061784,"INCLINATION":74.0411,"RA_OF_ASC_NODE":48.1793,"ARG_OF_PERICENTER":52.5228,"MEAN_ANOMALY":5.959,"EPHEMERIS_TYPE":0,"CLASSIFICATION_TYPE":"U","NORAD_CAT_ID":40808,"ELEMENT_SET_NO":999,"REV_AT_EPOCH":64358,"BSTAR":0.0011516582,"MEAN_MOTION_DOT":6.661e-5,"MEAN_MOTION_DDOT":0},{"OBJECT_NAME":"COSMOS 2251 DEB","OBJECT_ID":"1993-036BWP","EPOCH":"2026-02-01T19:50:35.377440","MEAN_MOTION":14.5913738,"ECCENTRICITY":0.00162958,"INCLINATION":74.038,"RA_OF_ASC_NODE":337.4159,"ARG_OF_PERICENTER":115.209,"MEAN_ANOMALY":245.0767,"EPHEMERIS_TYPE":0,"CLASSIFICATION_TYPE":"U","NORAD_CAT_ID":40810,"ELEMENT_SET_NO":999,"REV_AT_EPOCH":62428,"BSTAR":0.00066098023,"MEAN_MOTION_DOT":3.09e-5,"MEAN_MOTION_DDOT":0},{"OBJECT_NAME":"COSMOS 2251 DEB","OBJECT_ID":"1993-036BWT","EPOCH":"2026-02-01T13:25:33.015360","MEAN_MOTION":14.51576619,"ECCENTRICITY":0.0038702,"INCLINATION":74.0466,"RA_OF_ASC_NODE":342.6091,"ARG_OF_PERICENTER":89.4799,"MEAN_ANOMALY":271.0797,"EPHEMERIS_TYPE":0,"CLASSIFICATION_TYPE":"U","NORAD_CAT_ID":46271,"ELEMENT_SET_NO":999,"REV_AT_EPOCH":85379,"BSTAR":0.00034201392,"MEAN_MOTION_DOT":1.355e-5,"MEAN_MOTION_DDOT":0},{"OBJECT_NAME":"COSMOS 2251 DEB","OBJECT_ID":"1993-036BWU","EPOCH":"2026-01-29T08:50:27.704544","MEAN_MOTION":14.52197202,"ECCENTRICITY":0.00986715,"INCLINATION":73.9135,"RA_OF_ASC_NODE":265.9616,"ARG_OF_PERICENTER":175.9518,"MEAN_ANOMALY":184.2465,"EPHEMERIS_TYPE":0,"CLASSIFICATION_TYPE":"U","NORAD_CAT_ID":46430,"ELEMENT_SET_NO":999,"REV_AT_EPOCH":80374,"BSTAR":0.0025276687,"MEAN_MOTION_DOT":0.00010916,"MEAN_MOTION_DDOT":0},{"OBJECT_NAME":"COSMOS 2251 DEB","OBJECT_ID":"1993-036BWW","EPOCH":"2026-01-27T18:55:37.314912","MEAN_MOTION":13.36708525,"ECCENTRICITY":0.0471287,"INCLINATION":73.8716,"RA_OF_ASC_NODE":38.7296,"ARG_OF_PERICENTER":148.8118,"MEAN_ANOMALY":28.4293,"EPHEMERIS_TYPE":0,"CLASSIFICATION_TYPE":"U","NORAD_CAT_ID":46432,"ELEMENT_SET_NO":999,"REV_AT_EPOCH":67581,"BSTAR":0.00053043403,"MEAN_MOTION_DOT":5.01e-6,"MEAN_MOTION_DDOT":0},{"OBJECT_NAME":"COSMOS 2251 DEB","OBJECT_ID":"1993-036BWZ","EPOCH":"2026-01-23T21:14:19.928832","MEAN_MOTION":14.38929593,"ECCENTRICITY":0.0029749,"INCLINATION":74.0581,"RA_OF_ASC_NODE":71.5374,"ARG_OF_PERICENTER":205.1645,"MEAN_ANOMALY":334.83,"EPHEMERIS_TYPE":0,"CLASSIFICATION_TYPE":"U","NORAD_CAT_ID":47045,"ELEMENT_SET_NO":999,"REV_AT_EPOCH":8411,"BSTAR":0.00015671,"MEAN_MOTION_DOT":4.59e-6,"MEAN_MOTION_DDOT":0},{"OBJECT_NAME":"COSMOS 2251 DEB","OBJECT_ID":"1993-036BXC","EPOCH":"2026-01-21T08:51:15.996960","MEAN_MOTION":14.5280115,"ECCENTRICITY":0.01328968,"INCLINATION":73.9756,"RA_OF_ASC_NODE":244.1748,"ARG_OF_PERICENTER":61.816,"MEAN_ANOMALY":116.8993,"EPHEMERIS_TYPE":0,"CLASSIFICATION_TYPE":"U","NORAD_CAT_ID":47048,"ELEMENT_SET_NO":999,"REV_AT_EPOCH":60265,"BSTAR":0.0032388651,"MEAN_MOTION_DOT":0.00014953,"MEAN_MOTION_DDOT":0}]
